CCSDS_OMM_VERS,COMMENT,CREATION_DATE,ORIGINATOR,OBJECT_NAME,OBJECT_ID,CENTER_NAME,REF_FRAME,TIME_SYSTEM,MEAN_ELEMENT_THEORY,EPOCH,MEAN_MOTION,ECCENTRICITY,INCLINATION,RA_OF_ASC_NODE,ARG_OF_PERICENTER,MEAN_ANOMALY,EPHEMERIS_TYPE,CLASSIFICATION_TYPE,NORAD_CAT_ID,ELEMENT_SET_NO,REV_AT_EPOCH,BSTAR,MEAN_MOTION_DOT,MEAN_MOTION_DDOT,SEMIMAJOR_AXIS,PERIOD,APOAPSIS,PERIAPSIS,OBJECT_TYPE,RCS_SIZE,COUNTRY_CODE,LAUNCH_DATE,SITE,DECAY_DATE,FILE,GP_ID,TLE_LINE0,TLE_LINE1,TLE_LINE2,NORAD_KEY,JCAT,DeepCat,Satcat,Piece,Active,Type,Name,LDate,Parent,Owner,State,SDate,ExpandedStatus,DDate,ODate,Period,Perigee,PF,Apogee,AF,Inc,IF,OpOrbit,SATCAT_KEY,DENSITY_SCORE
3.0,GENERATED VIA SPACE-TRACK.ORG API,2026-05-06T14:46:56,18 SPCS,INTELSAT 502,1980-098A,EARTH,TEME,UTC,SGP4,2026-05-06T07:57:53.358048,0.98893375,0.0010719,11.3506,327.2496,330.9904,36.642,0,U,12089,999,13331,0.0,-2.2e-06,0.0,42555.632,1456.114,36223.112,36131.881,PAYLOAD,LARGE,ITSO,1980-12-06,AFETR,,5177222,322299141,0 INTELSAT 502,1 12089U 80098A   26126.33186757 -.00000220  00000-0  00000+0 0  9996,2 12089  11.3506 327.2496 0010719 330.9904  36.6420  0.98893375133311,12089,S12089,-,12089,1980-098A,P,P,INTELSAT 502,1980 Dec  6,S12445,SESINTU,US,1980 Dec  6 2358,In Earth orbit,-,2026 May  5 ,1456.116,36131, ,36223, ,11.35, ,GEO/ID,12089,1.8619479032750907
3.0,GENERATED VIA SPACE-TRACK.ORG API,2026-05-06T14:56:52,18 SPCS,COSMOS 2291,1994-060A,EARTH,TEME,UTC,SGP4,2026-05-06T09:40:07.763232,1.00279985,0.0005849,14.1654,349.9476,235.4379,133.7557,0,U,23267,999,11578,0.0,-1e-06,0.0,42162.433,1435.979,35808.959,35759.638,PAYLOAD,LARGE,CIS,1994-09-21,TTMTR,,5177501,322305129,0 COSMOS 2291,1 23267U 94060A   26126.40286763 -.00000100  00000-0  00000+0 0  9993,2 23267  14.1654 349.9476 0005849 235.4379 133.7557  1.00279985115788,23267,S23267,-,23267,1994-060A,P,P,Kosmos-2291,1994 Sep 21,S23270,VVKOV,RU,1994 Sep 22 0040?,In Earth orbit,-,2026 May  4 ,1435.98,35759, ,35809, ,14.17, ,GEO/I,23267,1.8630171942686038
3.0,GENERATED VIA SPACE-TRACK.ORG API,2026-05-06T14:56:52,18 SPCS,INTELSAT 5 (PAS 5),1997-046A,EARTH,TEME,UTC,SGP4,2026-05-06T11:30:31.780800,0.99034122,0.000291,10.3109,49.5724,245.7987,197.9586,0,U,24916,999,10513,0.0,-5.5e-07,0.0,42515.302,1454.044,36149.539,36124.795,PAYLOAD,LARGE,US,1997-08-28,TTMTR,,5177543,322306715,0 INTELSAT 5 (PAS 5),1 24916U 97046A   26126.47953450 -.00000055  00000-0  00000+0 0  9992,2 24916  10.3109  49.5724 0002910 245.7987 197.9586  0.99034122105138,24916,S24916,-,24916,1997-046A,P,P,Intelsat IS-5,1997 Aug 28,S24919,SESINTU,US,1997 Aug 28 0714,In Earth orbit,-,2026 May  4 ,1454.034,36124, ,36149, ,10.31, ,GEO/ID,24916,1.8635939461248066
3.0,GENERATED VIA SPACE-TRACK.ORG API,2026-05-06T10:08:52,18 SPCS,STTW-3,1988-111A,EARTH,TEME,UTC,SGP4,2026-05-06T04:50:09.525696,1.00209844,0.00036247,14.0728,345.8819,182.2084,181.7422,0,U,19710,999,13042,0.0,8e-07,0.0,42182.105,1436.985,35819.26,35788.68,PAYLOAD,LARGE,PRC,1988-12-22,XSC,,5176958,322263389,0 STTW-3,1 19710U 88111A   26126.20149914  .00000080  00000-0  00000-0 0  9992,2 19710  14.0728 345.8819 0003625 182.2084 181.7422  1.00209844130424,19710,S19710,-,19710,1988-111A,P,P,Zhongxing 2,1988 Dec 22,A04625,CHISAE,CN,1988 Dec 22 1306?,In Earth orbit,-,2026 May  4 ,1436.992,35789, ,35818, ,14.07, ,GEO/ID,19710,1.8648705243335073
3.0,GENERATED VIA SPACE-TRACK.ORG API,2026-05-06T14:46:56,18 SPCS,COSMOS 1540,1984-022A,EARTH,TEME,UTC,SGP4,2026-05-06T13:38:12.720192,1.00284876,0.0006944,9.4073,304.8424,298.1033,260.6184,0,U,14783,999,12060,0.0,-9.4e-07,0.0,42161.062,1435.909,35812.204,35753.651,PAYLOAD,MEDIUM,CIS,1984-03-02,TTMTR,,5177266,322300186,0 COSMOS 1540,1 14783U 84022A   26126.56820278 -.00000094  00000-0  00000+0 0  9997,2 14783   9.4073 304.8424 0006944 298.1033 260.6184  1.00284876120604,14783,S14783,-,14783,1984-022A,P,P,Kosmos-1540,1984 Mar  2,S14948,VVKOV,SU,1984 Mar  2 1034?,In Earth orbit,-,2026 May  5 ,1435.91,35753, ,35812, ,9.41, ,GEO/I,14783,1.8673611138371962
3.0,GENERATED VIA SPACE-TRACK.ORG API,2026-05-06T10:08:52,18 SPCS,COSMOS 2133,1991-010A,EARTH,TEME,UTC,SGP4,2026-05-06T01:42:38.680992,1.00269892,0.00031297,13.273,343.0624,204.2605,142.7187,0,U,21111,999,12901,0.0,-1.55e-06,0.0,42165.263,1436.124,35800.324,35773.931,PAYLOAD,LARGE,CIS,1991-02-14,TTMTR,,5176958,322263598,0 COSMOS 2133,1 21111U 91010A   26126.07128103 -.00000155  00000-0  00000-0 0  9998,2 21111  13.2730 343.0624 0003130 204.2605 142.7187  1.00269892129012,21111,S21111,-,21111,1991-010A,P,P,Kosmos-2133,1991 Feb 14,S21129,PVO,SU,1991 Feb 14 1510?,In Earth orbit,-,2026 May  4 ,1436.122,35774, ,35800, ,13.27, ,GEO/I,21111,1.8674483381737563
3.0,GENERATED VIA SPACE-TRACK.ORG API,2026-05-06T14:56:52,18 SPCS,ABS 7 (KOREASAT 3),1999-046A,EARTH,TEME,UTC,SGP4,2026-05-06T12:00:26.764992,0.99976459,0.000289,6.374,71.2594,316.2819,155.1388,0,U,25894,999,9666,0.0,-3.16e-06,0.0,42247.726,1440.339,35881.801,35857.382,PAYLOAD,LARGE,SKOR,1999-09-04,FRGUI,,5177575,322307616,0 ABS 7 (KOREASAT 3),1 25894U 99046A   26126.50030978 -.00000316  00000-0  00000+0 0  9995,2 25894   6.3740  71.2594 0002890 316.2819 155.1388  0.99976459 96663,25894,S25894,-,25894,1999-046A,P,P,ABS-7,1999 Sep  4,S25895,ABSHK,HK,1999 Sep  4 2254,In Earth orbit,-,2026 May  5 ,1440.331,35856, ,35881, ,6.37, ,GEO/ID,25894,1.8677017419723203
3.0,GENERATED VIA SPACE-TRACK.ORG API,2026-05-06T02:32:52,18 SPCS,RADUGA 29,1993-013A,EARTH,TEME,UTC,SGP4,2026-05-05T13:07:51.708000,1.00367468,0.00034316,13.8635,345.4353,176.2174,1.891,0,U,22557,999,12125,0.0,-3.44e-06,0.0,42137.93,1434.728,35774.255,35745.335,PAYLOAD,LARGE,CIS,1993-03-25,TTMTR,,5176277,322215208,0 RADUGA 29,1 22557U 93013A   26125.54712625 -.00000344  00000-0  00000-0 0  9997,2 22557  13.8635 345.4353 0003432 176.2174   1.8910  1.00367468121251,22557,S22557,-,22557,1993-013A,P,P,Raduga,1993 Mar 25,S22624,VVKOV,RU,1993 Mar 25 0904?,In Earth orbit,-,2026 May  5 ,1434.725,35745, ,35774, ,13.86, ,GEO/ID,22557,1.8712764685919718
3.0,GENERATED VIA SPACE-TRACK.ORG API,2026-05-06T14:56:52,18 SPCS,ECHOSTAR 8,2002-039A,EARTH,TEME,UTC,SGP4,2026-05-06T12:30:37.233792,0.98508494,0.0009864,8.7186,62.2623,32.6147,227.6362,0,U,27501,999,5164,0.0,-7e-08,0.0,42666.405,1461.803,36330.356,36246.184,PAYLOAD,LARGE,US,2002-08-22,TTMTR,,5177612,322308133,0 ECHOSTAR 8,1 27501U 02039A   26126.52126428 -.00000007  00000-0  00000+0 0  9993,2 27501   8.7186  62.2623 0009864  32.6147 227.6362  0.98508494 51649,27501,S27501,-,27501,2002-039A,P,P,Echostar VIII,2002 Aug 22,S27504,ECHOC,US,2002 Aug 22 1150,In Earth orbit,-,2026 May  5 ,1461.798,36246, ,36330, ,8.72, ,GEO/ID,27501,1.873996250196625
3.0,GENERATED VIA SPACE-TRACK.ORG API,2026-05-06T10:08:52,18 SPCS,EKRAN 20,1992-074A,EARTH,TEME,UTC,SGP4,2026-05-06T04:50:09.525696,1.00297548,0.00030906,13.7135,344.6121,217.6394,147.4326,0,U,22210,999,4695,0.0,7.1e-07,0.0,42157.511,1435.728,35792.405,35766.347,PAYLOAD,LARGE,CIS,1992-10-30,TTMTR,,5176958,322264841,0 EKRAN 20,1 22210U 92074A   26126.20149914  .00000071  00000-0  00000-0 0  9994,2 22210  13.7135 344.6121 0003091 217.6394 147.4326  1.00297548 46952,22210,S22210,-,22210,1992-074A,P,P,Ekran-M,1992 Oct 30,S22213,KS,RU,1992 Oct 30 2136?,In Earth orbit,-,2026 May  4 ,1435.736,35766, ,35792, ,13.71, ,GEO/I,22210,1.8750798699433437
3.0,GENERATED VIA SPACE-TRACK.ORG API,2026-05-06T14:46:56,18 SPCS,INTELSAT 512,1985-087A,EARTH,TEME,UTC,SGP4,2026-05-06T08:01:23.023200,0.99117487,0.0012466,14.124,344.0545,332.0999,32.1521,0,U,16101,999,12991,0.0,-1.63e-06,0.0,42491.46,1452.821,36166.295,36060.355,PAYLOAD,LARGE,ITSO,1985-09-28,AFETR,,5177283,322300401,0 INTELSAT 512,1 16101U 85087A   26126.33429425 -.00000163  00000-0  00000+0 0  9996,2 16101  14.1240 344.0545 0012466 332.0999  32.1521  0.99117487129914,16101,S16101,-,16101,1985-087A,P,P,INTELSAT 512,1985 Sep 28,S16102,SESINTU,US,1985 Sep 29 0002,In Earth orbit,-,2026 May  4 ,1452.826,36060, ,36166, ,14.12, ,GEO/ID,16101,1.8750923546466993
3.0,GENERATED VIA SPACE-TRACK.ORG API,2026-05-06T10:08:52,18 SPCS,KALPANA 1 (METSAT 1),2002-043A,EARTH,TEME,UTC,SGP4,2026-05-06T04:17:12.685920,0.9833783,0.00049464,12.9914,32.6408,142.676,50.8351,0,U,27525,999,8607,0.0,-1.07e-06,0.0,42715.756,1464.34,36358.75,36316.492,PAYLOAD,LARGE,IND,2002-09-12,SRI,,5176958,322266250,0 KALPANA 1 (METSAT 1),1 27525U 02043A   26126.17861905 -.00000107  00000-0  00000-0 0  9993,2 27525  12.9914  32.6408 0004946 142.6760  50.8351  0.98337830 86075,27525,S27525,-,27525,2002-043A,P,P,KALPANA-1,2002 Sep 12,S27526,ISRO,IN,2002 Sep 12 1043,In Earth orbit,-,2026 May  5 ,1464.334,36316, ,36358, ,12.99, ,GEO/ID,27525,1.8765460382426506
3.0,GENERATED VIA SPACE-TRACK.ORG API,2026-05-06T10:08:52,18 SPCS,EUTE 48A (HB2),1996-067A,EARTH,TEME,UTC,SGP4,2026-05-06T04:14:35.437056,0.98380894,0.00029344,11.8859,36.0962,132.1986,47.9856,0,U,24665,999,10764,0.0,-7.5e-07,0.0,42703.29,1463.699,36337.685,36312.624,PAYLOAD,LARGE,EUTE,1996-11-21,AFETR,,5176958,322265202,0 EUTE 48A (HB2),1 24665U 96067A   26126.17679904 -.00000075  00000-0  00000-0 0  9994,2 24665  11.8859  36.0962 0002934 132.1986  47.9856  0.98380894107647,24665,S24665,-,24665,1996-067A,P,P,EUTELSAT 48A,1996 Nov 21,S24666,EUTSA,F,1996 Nov 21 2115?,In Earth orbit,-,2026 May  4 ,1463.691,36312, ,36337, ,11.88, ,GEO/ID,24665,1.87720498604732
3.0,GENERATED VIA SPACE-TRACK.ORG API,2026-05-06T14:56:52,18 SPCS,EUTE 12 WEST B,2001-042A,EARTH,TEME,UTC,SGP4,2026-05-06T12:12:46.279008,0.98530796,0.0005509,6.5142,71.3207,244.4143,248.1331,0,U,26927,999,8974,0.0,-2.25e-06,0.0,42659.967,1461.472,36305.333,36258.33,PAYLOAD,LARGE,EUTE,2001-09-25,FRGUI,,5177602,322308452,0 EUTE 12 WEST B,1 26927U 01042A   26126.50886897 -.00000225  00000-0  00000+0 0  9990,2 26927   6.5142  71.3207 0005509 244.4143 248.1331  0.98530796 89744,26927,S26927,-,26927,2001-042A,P,P,EUTELSAT 12 WEST B,2001 Sep 25,S26928,EUTSA,F,2001 Sep 25 2340,In Earth orbit,-,2026 May  4 ,1461.472,36257, ,36305, ,6.51, ,GEO/ID,26927,1.878506263391508
